{
  "type": "FeatureCollection",
  "features": [
    {
      "type": "Feature",
      "geometry": {
        "type": "Polygon",
        "coordinates": [
          [
            [
              -122.419916154,
              37.724624125
            ],
            [
              -122.424376225,
              37.723527276
            ],
            [
              -122.42520864,
              37.722319967
            ],
            [
              -122.424371799,
              37.721921022
            ],
            [
              -122.425546286,
              37.720366946
            ],
            [
              -122.423498196,
              37.719844779
            ],
            [
              -122.423327678,
              37.719560656
            ],
            [
              -122.423356267,
              37.718887125
            ],
            [
              -122.422918528,
              37.718262625
            ],
            [
              -122.425051404,
              37.716920247
            ],
            [
              -122.425607562,
              37.717928444
            ],
            [
              -122.426190219,
              37.718299527
            ],
            [
              -122.427119366,
              37.715639555
            ],
            [
              -122.427265817,
              37.714897008
            ],
            [
              -122.425318182,
              37.714395593
            ],
            [
              -122.426600555,
              37.711593326
            ],
            [
              -122.425278738,
              37.711103392
            ],
            [
              -122.423973332,
              37.710355613
            ],
            [
              -122.423992263,
              37.710690317
            ],
            [
              -122.422583039,
              37.710910947
            ],
            [
              -122.423206989,
              37.71112735
            ],
            [
              -122.422655148,
              37.712271181
            ],
            [
              -122.424279348,
              37.712741314
            ],
            [
              -122.423695191,
              37.714168889
            ],
            [
              -122.422026803,
              37.713697987
            ],
            [
              -122.421784631,
              37.714208812
            ],
            [
              -122.417663053,
              37.713041149
            ],
            [
              -122.417680625,
              37.713560857
            ],
            [
              -122.416770575,
              37.714583398
            ],
            [
              -122.416305096,
              37.714672344
            ],
            [
              -122.416121963,
              37.713936363
            ],
            [
              -122.415423582,
              37.713508432
            ],
            [
              -122.415325942,
              37.713749578
            ],
            [
              -122.415685773,
              37.71384741
            ],
            [
              -122.415453253,
              37.714363059
            ],
            [
              -122.415488725,
              37.715601775
            ],
            [
              -122.414348476,
              37.715292441
            ],
            [
              -122.414063814,
              37.716196602
            ],
            [
              -122.413192324,
              37.716317186
            ],
            [
              -122.413196002,
              37.716460019
            ],
            [
              -122.412204738,
              37.716801654
            ],
            [
              -122.41056505,
              37.71635704
            ],
            [
              -122.410244857,
              37.716668432
            ],
            [
              -122.409918028,
              37.716578866
            ],
            [
              -122.409862453,
              37.716708895
            ],
            [
              -122.408555155,
              37.71635062
            ],
            [
              -122.408471786,
              37.716545664
            ],
            [
              -122.408144964,
              37.716456092
            ],
            [
              -122.408006012,
              37.716781163
            ],
            [
              -122.408850858,
              37.716940129
            ],
            [
              -122.4083173,
              37.71818835
            ],
            [
              -122.408997011,
              37.718387645
            ],
            [
              -122.408765736,
              37.718889968
            ],
            [
              -122.409018754,
              37.719295563
            ],
            [
              -122.41099067,
              37.718785018
            ],
            [
              -122.412172806,
              37.721667645
            ],
            [
              -122.414299537,
              37.72139875
            ],
            [
              -122.415166352,
              37.721784685
            ],
            [
              -122.415484545,
              37.722253796
            ],
            [
              -122.416637003,
              37.721964006
            ],
            [
              -122.416962606,
              37.722739128
            ],
            [
              -122.41794627,
              37.722486671
            ],
            [
              -122.418449768,
              37.723685251
            ],
            [
              -122.419425472,
              37.723428005
            ],
            [
              -122.419916154,
              37.724624125
            ]
          ]
        ]
      },
      "properties": {
        "name": "John McLaren Park",
        "layerType": "area",
        "category": "park",
        "metadata": {
          "type": "Regional Park",
          "acres": "313.70160816",
          "neighborhood": "McLaren Park, Visitacion Valley, Excelsior, Portola",
          "address": "100 John F Shelley Dr",
          "note": "SF's second largest park, 7 miles of trails"
        }
      }
    },
    {
      "type": "Feature",
      "geometry": {
        "type": "Polygon",
        "coordinates": [
          [
            [
              -122.436792706,
              37.811173204
            ],
            [
              -122.449169852,
              37.809586049
            ],
            [
              -122.448764482,
              37.806813702
            ],
            [
              -122.448473466,
              37.806737186
            ],
            [
              -122.448747704,
              37.806706496
            ],
            [
              -122.448658265,
              37.806134969
            ],
            [
              -122.448403512,
              37.806290149
            ],
            [
              -122.448283829,
              37.805114785
            ],
            [
              -122.436467843,
              37.806594589
            ],
            [
              -122.435941352,
              37.806443721
            ],
            [
              -122.433915366,
              37.805167433
            ],
            [
              -122.432221352,
              37.805290759
            ],
            [
              -122.432952622,
              37.808960634
            ],
            [
              -122.436257427,
              37.808538124
            ],
            [
              -122.436792706,
              37.811173204
            ]
          ]
        ]
      },
      "properties": {
        "name": "Yacht Harbor and Marina Green",
        "layerType": "area",
        "category": "park",
        "metadata": {
          "type": "Regional Park",
          "acres": "165.47144441999998",
          "neighborhood": "Marina, Presidio",
          "address": "1 Marina Green Dr",
          "note": "Waterfront park with Golden Gate views, popular for running"
        }
      }
    },
    {
      "type": "Feature",
      "geometry": {
        "type": "Polygon",
        "coordinates": [
          [
            [
              -122.500609774,
              37.786106926
            ],
            [
              -122.501022951,
              37.786395291
            ],
            [
              -122.501168732,
              37.787010673
            ],
            [
              -122.501814946,
              37.787191434
            ],
            [
              -122.502416589,
              37.787043618
            ],
            [
              -122.503359839,
              37.786485483
            ],
            [
              -122.5035199,
              37.786024814
            ],
            [
              -122.505078913,
              37.785242627
            ],
            [
              -122.504154115,
              37.784017573
            ],
            [
              -122.501340211,
              37.784146047
            ],
            [
              -122.501115376,
              37.781351636
            ],
            [
              -122.493336381,
              37.781706856
            ],
            [
              -122.493800005,
              37.786891481
            ],
            [
              -122.494178339,
              37.786388147
            ],
            [
              -122.495149177,
              37.786704549
            ],
            [
              -122.497084595,
              37.786465508
            ],
            [
              -122.497321791,
              37.786301123
            ],
            [
              -122.498965865,
              37.786585957
            ],
            [
              -122.499344771,
              37.786557035
            ],
            [
              -122.500177499,
              37.785966341
            ],
            [
              -122.500609774,
              37.786106926
            ]
          ]
        ]
      },
      "properties": {
        "name": "Lincoln Park",
        "layerType": "area",
        "category": "park",
        "metadata": {
          "type": "Regional Park",
          "acres": "112.82207948",
          "neighborhood": "Lincoln Park, Outer Richmond, Seacliff",
          "address": "100 34th Ave",
          "note": "Home to Legion of Honor museum, coastal trail views"
        }
      }
    },
    {
      "type": "Feature",
      "geometry": {
        "type": "Polygon",
        "coordinates": [
          [
            [
              -122.444424639,
              37.743036414
            ],
            [
              -122.445925575,
              37.743663712
            ],
            [
              -122.446115579,
              37.74456705
            ],
            [
              -122.447157949,
              37.745752903
            ],
            [
              -122.446378739,
              37.744716937
            ],
            [
              -122.446207181,
              37.743954863
            ],
            [
              -122.446718257,
              37.743207303
            ],
            [
              -122.449338488,
              37.743049639
            ],
            [
              -122.448792147,
              37.742840641
            ],
            [
              -122.446618943,
              37.742525762
            ],
            [
              -122.446215373,
              37.742190963
            ],
            [
              -122.446019627,
              37.741418502
            ],
            [
              -122.445805705,
              37.741173804
            ],
            [
              -122.444615445,
              37.740857849
            ],
            [
              -122.443829822,
              37.74014532
            ],
            [
              -122.442629948,
              37.739720221
            ],
            [
              -122.442424035,
              37.73934662
            ],
            [
              -122.442546874,
              37.73841606
            ],
            [
              -122.442353264,
              37.737399463
            ],
            [
              -122.44257016,
              37.737100013
            ],
            [
              -122.443689136,
              37.736396869
            ],
            [
              -122.443777298,
              37.735924487
            ],
            [
              -122.443313818,
              37.735707961
            ],
            [
              -122.441977207,
              37.736039992
            ],
            [
              -122.442430764,
              37.736082986
            ],
            [
              -122.442438862,
              37.736623579
            ],
            [
              -122.441723112,
              37.736626701
            ],
            [
              -122.441633827,
              37.736874265
            ],
            [
              -122.441462609,
              37.73685415
            ],
            [
              -122.441825442,
              37.736045487
            ],
            [
              -122.441029043,
              37.735676065
            ],
            [
              -122.440646999,
              37.735105883
            ],
            [
              -122.440058114,
              37.734958177
            ],
            [
              -122.439811637,
              37.735604773
            ],
            [
              -122.439762538,
              37.73711633
            ],
            [
              -122.440228493,
              37.73820104
            ],
            [
              -122.440054268,
              37.738553532
            ],
            [
              -122.439684667,
              37.738787166
            ],
            [
              -122.439875846,
              37.740172264
            ],
            [
              -122.439708934,
              37.740372972
            ],
            [
              -122.440088971,
              37.740352501
            ],
            [
              -122.439933783,
              37.74079183
            ],
            [
              -122.440969845,
              37.741502018
            ],
            [
              -122.440729028,
              37.741976966
            ],
            [
              -122.441487829,
              37.742474146
            ],
            [
              -122.441889954,
              37.743613799
            ],
            [
              -122.442295704,
              37.743999608
            ],
            [
              -122.442585404,
              37.743655185
            ],
            [
              -122.443542162,
              37.743063349
            ],
            [
              -122.444066561,
              37.742913616
            ],
            [
              -122.444424639,
              37.743036414
            ]
          ],
          [
            [
              -122.448645989,
              37.742846701
            ],
            [
              -122.44864897,
              37.742960415
            ],
            [
              -122.448440966,
              37.742943262
            ],
            [
              -122.448437756,
              37.742820809
            ],
            [
              -122.448645989,
              37.742846701
            ]
          ]
        ]
      },
      "properties": {
        "name": "Glen Canyon Park",
        "layerType": "area",
        "category": "park",
        "metadata": {
          "type": "Neighborhood Park or Playground",
          "acres": "70.70205415",
          "neighborhood": "Glen Park, West of Twin Peaks",
          "address": "70 Elk St",
          "note": "Urban wilderness canyon with creek and native plants"
        }
      }
    },
    {
      "type": "Feature",
      "geometry": {
        "type": "Polygon",
        "coordinates": [
          [
            [
              -122.427034537,
              37.715621093
            ],
            [
              -122.43113876,
              37.716514454
            ],
            [
              -122.433590296,
              37.713243816
            ],
            [
              -122.429319633,
              37.712342863
            ],
            [
              -122.42760681,
              37.71164701
            ],
            [
              -122.427481852,
              37.711931192
            ],
            [
              -122.42657021,
              37.711659634
            ],
            [
              -122.425318184,
              37.714395593
            ],
            [
              -122.427265815,
              37.71489701
            ],
            [
              -122.427034537,
              37.715621093
            ]
          ]
        ]
      },
      "properties": {
        "name": "Crocker Amazon Playground",
        "layerType": "area",
        "category": "park",
        "metadata": {
          "type": "Neighborhood Park or Playground",
          "acres": "57.523356299999996",
          "neighborhood": "Excelsior, McLaren Park",
          "address": "799 Moscow St",
          "note": "Youth sports complex, soccer fields and track"
        }
      }
    },
    {
      "type": "Feature",
      "geometry": {
        "type": "Polygon",
        "coordinates": [
          [
            [
              -122.444681852,
              37.75644822
            ],
            [
              -122.446756507,
              37.756429507
            ],
            [
              -122.446187172,
              37.755888426
            ],
            [
              -122.445224963,
              37.755923303
            ],
            [
              -122.445265917,
              37.755633741
            ],
            [
              -122.445815383,
              37.75545498
            ],
            [
              -122.446767549,
              37.755298546
            ],
            [
              -122.447616535,
              37.755809901
            ],
            [
              -122.447881493,
              37.755711093
            ],
            [
              -122.447279145,
              37.754174745
            ],
            [
              -122.447437578,
              37.755103515
            ],
            [
              -122.446564853,
              37.75497685
            ],
            [
              -122.4462161,
              37.754559497
            ],
            [
              -122.447054195,
              37.754057481
            ],
            [
              -122.446678564,
              37.753360019
            ],
            [
              -122.447389647,
              37.752463482
            ],
            [
              -122.446995688,
              37.751611094
            ],
            [
              -122.447731941,
              37.750811323
            ],
            [
              -122.448697516,
              37.750827079
            ],
            [
              -122.449196551,
              37.750587883
            ],
            [
              -122.449642395,
              37.749727167
            ],
            [
              -122.449578011,
              37.749286971
            ],
            [
              -122.449252242,
              37.749153713
            ],
            [
              -122.448288154,
              37.750223752
            ],
            [
              -122.44793779,
              37.750307416
            ],
            [
              -122.445804175,
              37.749358497
            ],
            [
              -122.445617179,
              37.748891232
            ],
            [
              -122.446253889,
              37.748719193
            ],
            [
              -122.447698448,
              37.749446566
            ],
            [
              -122.449178945,
              37.746758937
            ],
            [
              -122.450722558,
              37.746026254
            ],
            [
              -122.449494872,
              37.746190494
            ],
            [
              -122.448538434,
              37.746657063
            ],
            [
              -122.448144409,
              37.748373772
            ],
            [
              -122.447607191,
              37.749323108
            ],
            [
              -122.446382089,
              37.748583818
            ],
            [
              -122.445453926,
              37.748817356
            ],
            [
              -122.445354563,
              37.749307304
            ],
            [
              -122.447068388,
              37.750489002
            ],
            [
              -122.446627918,
              37.751474714
            ],
            [
              -122.446334819,
              37.751468358
            ],
            [
              -122.446665212,
              37.752565738
            ],
            [
              -122.445028285,
              37.754404204
            ],
            [
              -122.44485263,
              37.755167263
            ],
            [
              -122.444295613,
              37.755653994
            ],
            [
              -122.444681852,
              37.75644822
            ]
          ]
        ]
      },
      "properties": {
        "name": "Twin Peaks",
        "layerType": "area",
        "category": "park",
        "metadata": {
          "type": "Regional Park",
          "acres": "56.48619326",
          "neighborhood": "Twin Peaks",
          "address": "501 Twin Peaks Blvd",
          "note": "360° panoramic views of the city, iconic landmark"
        }
      }
    },
    {
      "type": "Feature",
      "geometry": {
        "type": "Polygon",
        "coordinates": [
          [
            [
              -122.394435983,
              37.718492792
            ],
            [
              -122.394807249,
              37.718242901
            ],
            [
              -122.394682411,
              37.717823297
            ],
            [
              -122.395100954,
              37.717612098
            ],
            [
              -122.395484315,
              37.71770217
            ],
            [
              -122.395565521,
              37.717585349
            ],
            [
              -122.395420211,
              37.717459489
            ],
            [
              -122.395789002,
              37.716790786
            ],
            [
              -122.396508736,
              37.716247876
            ],
            [
              -122.396639425,
              37.715909437
            ],
            [
              -122.396804563,
              37.715944455
            ],
            [
              -122.396142391,
              37.714650226
            ],
            [
              -122.393428864,
              37.714329646
            ],
            [
              -122.39175991,
              37.713966063
            ],
            [
              -122.390696562,
              37.713572745
            ],
            [
              -122.389673689,
              37.712820372
            ],
            [
              -122.388842565,
              37.712566288
            ],
            [
              -122.387713632,
              37.711616329
            ],
            [
              -122.387173113,
              37.711961144
            ],
            [
              -122.387658597,
              37.71249404
            ],
            [
              -122.38789757,
              37.713468833
            ],
            [
              -122.388728551,
              37.713232069
            ],
            [
              -122.38922171,
              37.714200401
            ],
            [
              -122.389471137,
              37.714078807
            ],
            [
              -122.391262694,
              37.716128538
            ],
            [
              -122.392797639,
              37.716829273
            ],
            [
              -122.393636553,
              37.717705485
            ],
            [
              -122.39335093,
              37.717809466
            ],
            [
              -122.394435983,
              37.718492792
            ]
          ],
          [
            [
              -122.395257613,
              37.71668604
            ],
            [
              -122.395202417,
              37.716784876
            ],
            [
              -122.395151032,
              37.716827384
            ],
            [
              -122.395075406,
              37.716845273
            ],
            [
              -122.394949532,
              37.716847298
            ],
            [
              -122.394856951,
              37.716817528
            ],
            [
              -122.394755602,
              37.716752469
            ],
            [
              -122.394519384,
              37.716528876
            ],
            [
              -122.39447994,
              37.716435962
            ],
            [
              -122.394482372,
              37.71632547
            ],
            [
              -122.394518364,
              37.716193596
            ],
            [
              -122.394578537,
              37.716084258
            ],
            [
              -122.394576626,
              37.716009264
            ],
            [
              -122.394556783,
              37.715951229
            ],
            [
              -122.394533077,
              37.715913467
            ],
            [
              -122.394532173,
              37.71591203
            ],
            [
              -122.394622629,
              37.715858475
            ],
            [
              -122.394613866,
              37.71585604
            ],
            [
              -122.394976748,
              37.715642954
            ],
            [
              -122.394993884,
              37.715644038
            ],
            [
              -122.39504047,
              37.715646983
            ],
            [
              -122.395104321,
              37.715656064
            ],
            [
              -122.395129629,
              37.715650603
            ],
            [
              -122.395192969,
              37.715639476
            ],
            [
              -122.395224377,
              37.715623809
            ],
            [
              -122.395262017,
              37.715602988
            ],
            [
              -122.395377388,
              37.715636509
            ],
            [
              -122.395498667,
              37.715658532
            ],
            [
              -122.395516751,
              37.715665805
            ],
            [
              -122.396361202,
              37.715851065
            ],
            [
              -122.396303488,
              37.715982267
            ],
            [
              -122.396305257,
              37.715982978
            ],
            [
              -122.396108754,
              37.716461268
            ],
            [
              -122.396106686,
              37.716466298
            ],
            [
              -122.395947735,
              37.71644265
            ],
            [
              -122.395949128,
              37.716437615
            ],
            [
              -122.395896721,
              37.716435756
            ],
            [
              -122.395858755,
              37.716433748
            ],
            [
              -122.395667504,
              37.716423633
            ],
            [
              -122.395667985,
              37.716421016
            ],
            [
              -122.395470669,
              37.716399183
            ],
            [
              -122.395363523,
              37.716415494
            ],
            [
              -122.395340666,
              37.716445038
            ],
            [
              -122.395257613,
              37.71668604
            ]
          ]
        ]
      },
      "properties": {
        "name": "Bay View Park",
        "layerType": "area",
        "category": "park",
        "metadata": {
          "type": "Regional Park",
          "acres": "46.64177327",
          "neighborhood": "Bayview Hunters Point",
          "address": "900 Key Ave",
          "note": "Hilltop park with bay views and native grasslands"
        }
      }
    },
    {
      "type": "Feature",
      "geometry": {
        "type": "Polygon",
        "coordinates": [
          [
            [
              -122.455487471,
              37.740825737
            ],
            [
              -122.45637932,
              37.740319656
            ],
            [
              -122.456555996,
              37.740564112
            ],
            [
              -122.457718073,
              37.739979967
            ],
            [
              -122.457869562,
              37.739187212
            ],
            [
              -122.457602979,
              37.739017846
            ],
            [
              -122.457658227,
              37.738543539
            ],
            [
              -122.457077248,
              37.738405163
            ],
            [
              -122.45573048,
              37.737419674
            ],
            [
              -122.454298893,
              37.737194527
            ],
            [
              -122.453731858,
              37.736736898
            ],
            [
              -122.453436136,
              37.736778035
            ],
            [
              -122.453444295,
              37.737472915
            ],
            [
              -122.452624954,
              37.738026502
            ],
            [
              -122.451885003,
              37.738109449
            ],
            [
              -122.451934264,
              37.739457775
            ],
            [
              -122.452176942,
              37.739835829
            ],
            [
              -122.451726501,
              37.739894913
            ],
            [
              -122.452173771,
              37.740293375
            ],
            [
              -122.453465155,
              37.740169754
            ],
            [
              -122.453466565,
              37.740284569
            ],
            [
              -122.452988961,
              37.74028588
            ],
            [
              -122.453019813,
              37.740603175
            ],
            [
              -122.454130719,
              37.740458395
            ],
            [
              -122.454412134,
              37.740739207
            ],
            [
              -122.454915381,
              37.740343433
            ],
            [
              -122.455487471,
              37.740825737
            ]
          ],
          [
            [
              -122.454752476,
              37.738240303
            ],
            [
              -122.454754646,
              37.738240373
            ],
            [
              -122.454756816,
              37.738240472
            ],
            [
              -122.454758985,
              37.738240599
            ],
            [
              -122.454761147,
              37.738240761
            ],
            [
              -122.454763306,
              37.73824095
            ],
            [
              -122.454765463,
              37.738241169
            ],
            [
              -122.454767612,
              37.738241418
            ],
            [
              -122.454769756,
              37.738241697
            ],
            [
              -122.454771897,
              37.738242006
            ],
            [
              -122.454774024,
              37.738242345
            ],
            [
              -122.454776148,
              37.738242712
            ],
            [
              -122.454778264,
              37.738243109
            ],
            [
              -122.454780367,
              37.738243536
            ],
            [
              -122.454782464,
              37.738243989
            ],
            [
              -122.454784549,
              37.738244475
            ],
            [
              -122.454786624,
              37.738244988
            ],
            [
              -122.454788686,
              37.738245529
            ],
            [
              -122.454790738,
              37.7382461
            ],
            [
              -122.454792776,
              37.7382467
            ],
            [
              -122.4547948,
              37.738247326
            ],
            [
              -122.45479681,
              37.738247981
            ],
            [
              -122.454798807,
              37.738248664
            ],
            [
              -122.454800787,
              37.738249373
            ],
            [
              -122.45480275,
              37.738250112
            ],
            [
              -122.454804698,
              37.738250875
            ],
            [
              -122.454806629,
              37.738251667
            ],
            [
              -122.454808542,
              37.738252485
            ],
            [
              -122.454810436,
              37.738253331
            ],
            [
              -122.454812312,
              37.738254201
            ],
            [
              -122.45481417,
              37.738255098
            ],
            [
              -122.454816006,
              37.738256018
            ],
            [
              -122.454817822,
              37.738256966
            ],
            [
              -122.454819617,
              37.738257938
            ],
            [
              -122.454821389,
              37.738258936
            ],
            [
              -122.454823141,
              37.738259957
            ],
            [
              -122.454824871,
              37.738261003
            ],
            [
              -122.454826574,
              37.738262073
            ],
            [
              -122.454828258,
              37.738263166
            ],
            [
              -122.454829913,
              37.738264282
            ],
            [
              -122.454831547,
              37.738265421
            ],
            [
              -122.454833153,
              37.738266582
            ],
            [
              -122.454834735,
              37.738267767
            ],
            [
              -122.454836289,
              37.73826897
            ],
            [
              -122.454837819,
              37.738270195
            ],
            [
              -122.454839319,
              37.738271445
            ],
            [
              -122.454840795,
              37.738272713
            ],
            [
              -122.454842237,
              37.738274002
            ],
            [
              -122.454843655,
              37.738275311
            ],
            [
              -122.454845044,
              37.738276638
            ],
            [
              -122.454846402,
              37.738277984
            ],
            [
              -122.45484773,
              37.738279349
            ],
            [
              -122.454849028,
              37.738280734
            ],
            [
              -122.454850297,
              37.738282134
            ],
            [
              -122.454851532,
              37.738283553
            ],
            [
              -122.45485274,
              37.73828499
            ],
            [
              -122.454853913,
              37.738286441
            ],
            [
              -122.454855055,
              37.738287909
            ],
            [
              -122.454856164,
              37.738289394
            ],
            [
              -122.454857239,
              37.738290892
            ],
            [
              -122.454858283,
              37.738292406
            ],
            [
              -122.454859293,
              37.738293934
            ],
            [
              -122.45486027,
              37.738295475
            ],
            [
              -122.454861211,
              37.73829703
            ],
            [
              -122.454862121,
              37.738298597
            ],
            [
              -122.454862992,
              37.738300178
            ],
            [
              -122.454863832,
              37.73830177
            ],
            [
              -122.454864635,
              37.738303373
            ],
            [
              -122.454865402,
              37.738304986
            ],
            [
              -122.454866135,
              37.738306611
            ],
            [
              -122.45486683,
              37.738308246
            ],
            [
              -122.454867491,
              37.73830989
            ],
            [
              -122.454868117,
              37.738311543
            ],
            [
              -122.454868703,
              37.738313203
            ],
            [
              -122.454869254,
              37.738314874
            ],
            [
              -122.454869771,
              37.73831655
            ],
            [
              -122.454870247,
              37.738318233
            ],
            [
              -122.454870689,
              37.738319923
            ],
            [
              -122.454871091,
              37.738321617
            ],
            [
              -122.454871457,
              37.738323319
            ],
            [
              -122.454871785,
              37.738325026
            ],
            [
              -122.454872076,
              37.738326735
            ],
            [
              -122.454872332,
              37.738328448
            ],
            [
              -122.454872546,
              37.738330164
            ],
            [
              -122.454872724,
              37.738331887
            ],
            [
              -122.454872864,
              37.738333607
            ],
            [
              -122.454872968,
              37.738335329
            ],
            [
              -122.454873031,
              37.738337056
            ],
            [
              -122.454873057,
              37.738338782
            ],
            [
              -122.454873046,
              37.738340506
            ],
            [
              -122.454872996,
              37.738342232
            ],
            [
              -122.45487291,
              37.738343956
            ],
            [
              -122.454872783,
              37.738345678
            ],
            [
              -122.45487262,
              37.7383474
            ],
            [
              -122.454872422,
              37.738349117
            ],
            [
              -122.454872182,
              37.738350834
            ],
            [
              -122.454871907,
              37.738352544
            ],
            [
              -122.454871592,
              37.738354252
            ],
            [
              -122.454871241,
              37.738355956
            ],
            [
              -122.454870853,
              37.738357651
            ],
            [
              -122.454870428,
              37.738359344
            ],
            [
              -122.454869963,
              37.73836103
            ],
            [
              -122.454869463,
              37.73836271
            ],
            [
              -122.454868927,
              37.738364383
            ],
            [
              -122.454868352,
              37.738366047
            ],
            [
              -122.454867743,
              37.738367703
            ],
            [
              -122.454867097,
              37.738369349
            ],
            [
              -122.454866415,
              37.738370988
            ],
            [
              -122.454865696,
              37.738372617
            ],
            [
              -122.454864942,
              37.738374235
            ],
            [
              -122.454864153,
              37.738375843
            ],
            [
              -122.454863328,
              37.73837744
            ],
            [
              -122.45486247,
              37.738379024
            ],
            [
              -122.454861576,
              37.738380596
            ],
            [
              -122.454860647,
              37.738382157
            ],
            [
              -122.454859682,
              37.738383703
            ],
            [
              -122.454858685,
              37.738385238
            ],
            [
              -122.454857655,
              37.738386755
            ],
            [
              -122.454856595,
              37.73838826
            ],
            [
              -122.454855496,
              37.738389752
            ],
            [
              -122.45485437,
              37.738391226
            ],
            [
              -122.454853206,
              37.738392683
            ],
            [
              -122.454852013,
              37.738394125
            ],
            [
              -122.45485079,
              37.73839555
            ],
            [
              -122.454849533,
              37.73839696
            ],
            [
              -122.454848246,
              37.738398352
            ],
            [
              -122.454846929,
              37.738399723
            ],
            [
              -122.454845583,
              37.738401078
            ],
            [
              -122.454844208,
              37.738402412
            ],
            [
              -122.454842803,
              37.738403729
            ],
            [
              -122.454841367,
              37.738405024
            ],
            [
              -122.454839905,
              37.738406301
            ],
            [
              -122.454838414,
              37.738407556
            ],
            [
              -122.454836897,
              37.738408792
            ],
            [
              -122.454835352,
              37.738410005
            ],
            [
              -122.454833782,
              37.738411197
            ],
            [
              -122.454832186,
              37.738412368
            ],
            [
              -122.454830563,
              37.738413516
            ],
            [
              -122.454828915,
              37.73841464
            ],
            [
              -122.454827244,
              37.738415742
            ],
            [
              -122.454825547,
              37.738416821
            ],
            [
              -122.45482383,
              37.738417877
            ],
            [
              -122.454822086,
              37.738418909
            ],
            [
              -122.454820322,
              37.738419915
            ],
            [
              -122.454818536,
              37.738420898
            ],
            [
              -122.454816727,
              37.738421855
            ],
            [
              -122.454814898,
              37.738422786
            ],
            [
              -122.454813051,
              37.738423694
            ],
            [
              -122.454811183,
              37.738424575
            ],
            [
              -122.454809294,
              37.73842543
            ],
            [
              -122.454807389,
              37.738426257
            ],
            [
              -122.454805465,
              37.73842706
            ],
            [
              -122.454803523,
              37.738427835
            ],
            [
              -122.454801566,
              37.738428584
            ],
            [
              -122.454799591,
              37.738429305
            ],
            [
              -122.454797601,
              37.738429996
            ],
            [
              -122.454795596,
              37.738430664
            ],
            [
              -122.454793578,
              37.738431303
            ],
            [
              -122.454791545,
              37.738431912
            ],
            [
              -122.454789499,
              37.738432494
            ],
            [
              -122.454787443,
              37.738433046
            ],
            [
              -122.454785371,
              37.738433571
            ],
            [
              -122.454783293,
              37.738434066
            ],
            [
              -122.454781198,
              37.738434534
            ],
            [
              -122.454779098,
              37.738434971
            ],
            [
              -122.454776986,
              37.738435381
            ],
            [
              -122.454774867,
              37.738435761
            ],
            [
              -122.454772737,
              37.73843611
            ],
            [
              -122.454770602,
              37.73843643
            ],
            [
              -122.45476846,
              37.73843672
            ],
            [
              -122.454766315,
              37.738436982
            ],
            [
              -122.45476416,
              37.738437213
            ],
            [
              -122.454762003,
              37.738437414
            ],
            [
              -122.454759839,
              37.738437584
            ],
            [
              -122.454757676,
              37.738437726
            ],
            [
              -122.454755508,
              37.738437838
            ],
            [
              -122.454753336,
              37.738437919
            ],
            [
              -122.454751165,
              37.73843797
            ],
            [
              -122.454748992,
              37.738437992
            ],
            [
              -122.454746818,
              37.738437982
            ],
            [
              -122.454744646,
              37.738437942
            ],
            [
              -122.454742476,
              37.738437873
            ],
            [
              -122.454740305,
              37.738437774
            ],
            [
              -122.454738141,
              37.738437645
            ],
            [
              -122.454735975,
              37.738437484
            ],
            [
              -122.454733817,
              37.738437296
            ],
            [
              -122.45473166,
              37.738437077
            ],
            [
              -122.45472951,
              37.738436828
            ],
            [
              -122.454727366,
              37.738436547
            ],
            [
              -122.454725228,
              37.738436239
            ],
            [
              -122.454723099,
              37.738435901
            ],
            [
              -122.454720977,
              37.738435533
            ],
            [
              -122.454718862,
              37.738435137
            ],
            [
              -122.454716755,
              37.738434711
            ],
            [
              -122.454714658,
              37.738434256
            ],
            [
              -122.454361538,
              37.738354888
            ],
            [
              -122.453877627,
              37.738287419
            ],
            [
              -122.453710228,
              37.738357028
            ],
            [
              -122.45371363,
              37.738370491
            ],
            [
              -122.453364835,
              37.73842608
            ],
            [
              -122.453341843,
              37.738335094
            ],
            [
              -122.453866985,
              37.738251401
            ],
            [
              -122.454746551,
              37.738240266
            ],
            [
              -122.454750305,
              37.738240264
            ],
            [
              -122.454752476,
              37.738240303
            ]
          ]
        ]
      },
      "properties": {
        "name": "Mt. Davidson Park",
        "layerType": "area",
        "category": "park",
        "metadata": {
          "type": "Regional Park",
          "acres": "40.71814397",
          "neighborhood": "West of Twin Peaks",
          "address": "150 Dalewood Way",
          "note": "SF's highest point at 928 ft, eucalyptus forest trails"
        }
      }
    },
    {
      "type": "Feature",
      "geometry": {
        "type": "Polygon",
        "coordinates": [
          [
            [
              -122.440342318,
              37.770694052
            ],
            [
              -122.44045515,
              37.770785502
            ],
            [
              -122.443240796,
              37.770413637
            ],
            [
              -122.443031352,
              37.76991606
            ],
            [
              -122.44242358,
              37.769705594
            ],
            [
              -122.442328573,
              37.769541463
            ],
            [
              -122.443329441,
              37.768854569
            ],
            [
              -122.443795439,
              37.767493366
            ],
            [
              -122.44355872,
              37.766821717
            ],
            [
              -122.442744377,
              37.766051238
            ],
            [
              -122.441987274,
              37.766010605
            ],
            [
              -122.440693313,
              37.766985641
            ],
            [
              -122.440165792,
              37.767817387
            ],
            [
              -122.438902396,
              37.768443155
            ],
            [
              -122.438452833,
              37.76902481
            ],
            [
              -122.438475768,
              37.769214156
            ],
            [
              -122.439569868,
              37.770400554
            ],
            [
              -122.440342318,
              37.770694052
            ]
          ]
        ]
      },
      "properties": {
        "name": "Buena Vista Park",
        "layerType": "area",
        "category": "park",
        "metadata": {
          "type": "Regional Park",
          "acres": "38.34512762",
          "neighborhood": "Haight Ashbury",
          "address": "1293 Haight St",
          "note": "SF's oldest park (1867), wooded hillside trails"
        }
      }
    },
    {
      "type": "Feature",
      "geometry": {
        "type": "Polygon",
        "coordinates": [
          [
            [
              -122.426217749,
              37.761313126
            ],
            [
              -122.428250504,
              37.761252199
            ],
            [
              -122.428185675,
              37.760889616
            ],
            [
              -122.428345357,
              37.761211496
            ],
            [
              -122.428040798,
              37.758161785
            ],
            [
              -122.42593378,
              37.758298336
            ],
            [
              -122.426217749,
              37.761313126
            ]
          ]
        ]
      },
      "properties": {
        "name": "Mission Dolores Park",
        "layerType": "area",
        "metadata": {
          "acres": "15.98778553",
          "neighborhood": "Castro/Upper Market",
          "note": "SF's most popular park for sunny day gatherings"
        }
      }
    }
  ]
}